{"fetched_at":"2026-05-03T06:27:58Z","count":17151,"tles":[{"name":"KUIPER-00437","line1":"1 68870U 26095G   26122.41670139  .00068753  00000+0  18757-2 0  9993","line2":"2 68870  51.8780 103.7182 0007563 123.9723  15.9783 15.36781253  1308","category":"Other"}]}