{
  "norad_id": 68870,
  "name": "KUIPER-00437",
  "history": [
    {
      "epoch": "2026-05-02T10:00:03.000096Z",
      "apogee_km": 460.803176620293,
      "perigee_km": 450.4664134031582,
      "latitude_deg": 30.492189307078668,
      "longitude_deg": -113.98598073198951,
      "height_km": 452.30579383738115,
      "semi_major_axis_km": 6833.771795011726,
      "eccentricity": 0.0007563,
      "inclination_deg": 51.878,
      "raan_deg": 103.7182,
      "arg_perigee_deg": 123.9723,
      "mean_anomaly_deg": 15.9783,
      "mean_motion_rev_day": 15.36781253
    }
  ]
}